start=new Date('2022-07-02T00:00:00.000Z').valueOf();
sats=[{"EPHEMERIS_TYPE":"0","NORAD_CAT_ID":"52376","PERIOD":"91.531","BSTAR":"-0.00057754000000","REV_AT_EPOCH":"1247","SITE":"AFETR","OBJECT_NAME":"STARLINK-3767","RCS_SIZE":"LARGE","CLASSIFICATION_TYPE":"U","ARG_OF_PERICENTER":"19.6405","LAUNCH_DATE":"2022-04-29","PERIAPSIS":"347.700","COUNTRY_CODE":"US","TLE_LINE2":"2 52376  53.2158 124.3040 0002886  19.6405  14.9183 15.73241672 12470","RA_OF_ASC_NODE":"124.3040","MEAN_MOTION_DDOT":"0.0000000000000","INCLINATION":"53.2158","MEAN_MOTION_DOT":"-0.00081064","CENTER_NAME":"EARTH","DECAY_DATE":null,"APOAPSIS":"351.583","REF_FRAME":"TEME","GP_ID":"207214877","MEAN_MOTION":"15.73241672","FILE":"3506384","TLE_LINE1":"1 52376U 22045AX  22182.91667824 -.00081064  00000-0 -57754-3 0  9996","TIME_SYSTEM":"UTC","MEAN_ELEMENT_THEORY":"SGP4","ELEMENT_SET_NO":"999","MEAN_ANOMALY":"14.9183","OBJECT_ID":"2022-045AX","SEMIMAJOR_AXIS":"6727.776","ECCENTRICITY":"0.00028860","EPOCH":"2022-07-01T22:00:00.999936","OBJECT_TYPE":"PAYLOAD"},{"OBJECT_TYPE":"PAYLOAD","MEAN_ANOMALY":"285.7164","ELEMENT_SET_NO":"999","ECCENTRICITY":"0.00030790","SEMIMAJOR_AXIS":"6727.766","OBJECT_ID":"2022-045AY","EPOCH":"2022-07-01T14:00:01.000224","TLE_LINE1":"1 52377U 22045AY  22182.58334491 -.00021643  00000-0 -14983-3 0  9995","TIME_SYSTEM":"UTC","MEAN_ELEMENT_THEORY":"SGP4","MEAN_MOTION":"15.73245158","FILE":"3506285","MEAN_MOTION_DOT":"-0.00021643","REF_FRAME":"TEME","APOAPSIS":"351.703","CENTER_NAME":"EARTH","DECAY_DATE":null,"GP_ID":"207212235","PERIAPSIS":"347.560","LAUNCH_DATE":"2022-04-29","COUNTRY_CODE":"US","TLE_LINE2":"2 52377  53.2153 125.9551 0003079  19.2822 285.7164 15.73245158  1304","INCLINATION":"53.2153","RA_OF_ASC_NODE":"125.9551","MEAN_MOTION_DDOT":"0.0000000000000","ARG_OF_PERICENTER":"19.2822","PERIOD":"91.531","NORAD_CAT_ID":"52377","EPHEMERIS_TYPE":"0","REV_AT_EPOCH":"130","BSTAR":"-0.00014983000000","CLASSIFICATION_TYPE":"U","RCS_SIZE":"LARGE","SITE":"AFETR","OBJECT_NAME":"STARLINK-3805"},{"BSTAR":"0.00007405300000","REV_AT_EPOCH":"130","NORAD_CAT_ID":"52378","PERIOD":"91.532","EPHEMERIS_TYPE":"0","CLASSIFICATION_TYPE":"U","SITE":"AFETR","RCS_SIZE":"LARGE","OBJECT_NAME":"STARLINK-3806","ARG_OF_PERICENTER":"11.7688","TLE_LINE2":"2 52378  53.2155 125.9516 0002989  11.7688 295.0386 15.73213720  1304","COUNTRY_CODE":"US","PERIAPSIS":"347.710","LAUNCH_DATE":"2022-04-29","INCLINATION":"53.2155","MEAN_MOTION_DDOT":"0.0000000000000","RA_OF_ASC_NODE":"125.9516","MEAN_MOTION_DOT":"0.00009790","GP_ID":"207212385","APOAPSIS":"351.732","REF_FRAME":"TEME","CENTER_NAME":"EARTH","DECAY_DATE":null,"MEAN_MOTION":"15.73213720","FILE":"3506285","TIME_SYSTEM":"UTC","TLE_LINE1":"1 52378U 22045AZ  22182.58334491  .00009790  00000-0  74053-4 0  9998","MEAN_ELEMENT_THEORY":"SGP4","MEAN_ANOMALY":"295.0386","ELEMENT_SET_NO":"999","EPOCH":"2022-07-01T14:00:01.000224","SEMIMAJOR_AXIS":"6727.856","ECCENTRICITY":"0.00029890","OBJECT_ID":"2022-045AZ","OBJECT_TYPE":"PAYLOAD"},{"TLE_LINE2":"2 52379  53.2155 125.9533 0002648  21.3709 284.8330 15.73214543  1306","COUNTRY_CODE":"US","LAUNCH_DATE":"2022-04-29","PERIAPSIS":"347.937","RA_OF_ASC_NODE":"125.9533","MEAN_MOTION_DDOT":"0.0000000000000","INCLINATION":"53.2155","MEAN_MOTION_DOT":"0.00012582","GP_ID":"207212688","CENTER_NAME":"EARTH","DECAY_DATE":null,"APOAPSIS":"351.500","REF_FRAME":"TEME","BSTAR":"0.00009387300000","REV_AT_EPOCH":"130","EPHEMERIS_TYPE":"0","PERIOD":"91.532","NORAD_CAT_ID":"52379","OBJECT_NAME":"STARLINK-3800","SITE":"AFETR","RCS_SIZE":"LARGE","CLASSIFICATION_TYPE":"U","ARG_OF_PERICENTER":"21.3709","ELEMENT_SET_NO":"999","MEAN_ANOMALY":"284.8330","EPOCH":"2022-07-01T14:00:01.000224","OBJECT_ID":"2022-045BA","SEMIMAJOR_AXIS":"6727.854","ECCENTRICITY":"0.00026480","OBJECT_TYPE":"PAYLOAD","MEAN_MOTION":"15.73214543","FILE":"3506285","TIME_SYSTEM":"UTC","TLE_LINE1":"1 52379U 22045BA  22182.58334491  .00012582  00000-0  93873-4 0  9993","MEAN_ELEMENT_THEORY":"SGP4"},{"OBJECT_TYPE":"PAYLOAD","OBJECT_ID":"2022-045BB","ECCENTRICITY":"0.00021960","SEMIMAJOR_AXIS":"6727.883","EPOCH":"2022-07-01T14:00:01.000224","ELEMENT_SET_NO":"999","MEAN_ANOMALY":"275.3365","MEAN_ELEMENT_THEORY":"SGP4","TLE_LINE1":"1 52380U 22045BB  22182.58334491  .00013518  00000-0  10056-3 0  9996","TIME_SYSTEM":"UTC","FILE":"3506285","MEAN_MOTION":"15.73204143","DECAY_DATE":null,"CENTER_NAME":"EARTH","APOAPSIS":"351.226","REF_FRAME":"TEME","GP_ID":"207212134","MEAN_MOTION_DOT":"0.00013518","MEAN_MOTION_DDOT":"0.0000000000000","RA_OF_ASC_NODE":"125.9471","INCLINATION":"53.2157","LAUNCH_DATE":"2022-04-29","PERIAPSIS":"348.271","COUNTRY_CODE":"US","TLE_LINE2":"2 52380  53.2157 125.9471 0002196  33.2194 275.3365 15.73204143  1307","ARG_OF_PERICENTER":"33.2194","SITE":"AFETR","RCS_SIZE":"LARGE","OBJECT_NAME":"STARLINK-3793","CLASSIFICATION_TYPE":"U","EPHEMERIS_TYPE":"0","NORAD_CAT_ID":"52380","PERIOD":"91.533","BSTAR":"0.00010056000000","REV_AT_EPOCH":"130"},{"RA_OF_ASC_NODE":"125.9494","MEAN_MOTION_DDOT":"0.0000000000000","INCLINATION":"53.2153","LAUNCH_DATE":"2022-04-29","PERIAPSIS":"347.141","COUNTRY_CODE":"US","TLE_LINE2":"2 52381  53.2153 125.9494 0003821   5.6924 301.7458 15.73216835  1307","CENTER_NAME":"EARTH","DECAY_DATE":null,"REF_FRAME":"TEME","APOAPSIS":"352.283","GP_ID":"207212587","MEAN_MOTION_DOT":"-0.00063347","RCS_SIZE":"LARGE","SITE":"AFETR","OBJECT_NAME":"STARLINK-3803","CLASSIFICATION_TYPE":"U","EPHEMERIS_TYPE":"0","NORAD_CAT_ID":"52381","PERIOD":"91.532","BSTAR":"-0.00044977000000","REV_AT_EPOCH":"130","ARG_OF_PERICENTER":"5.6924","OBJECT_ID":"2022-045BC","ECCENTRICITY":"0.00038210","SEMIMAJOR_AXIS":"6727.847","EPOCH":"2022-07-01T14:00:01.000224","ELEMENT_SET_NO":"999","MEAN_ANOMALY":"301.7458","OBJECT_TYPE":"PAYLOAD","FILE":"3506285","MEAN_MOTION":"15.73216835","MEAN_ELEMENT_THEORY":"SGP4","TLE_LINE1":"1 52381U 22045BC  22182.58334491 -.00063347  00000-0 -44977-3 0  9993","TIME_SYSTEM":"UTC"},{"ARG_OF_PERICENTER":"12.5221","REV_AT_EPOCH":"130","BSTAR":"-0.00006714300000","EPHEMERIS_TYPE":"0","PERIOD":"91.533","NORAD_CAT_ID":"52382","RCS_SIZE":"LARGE","SITE":"AFETR","OBJECT_NAME":"STARLINK-3799","CLASSIFICATION_TYPE":"U","MEAN_MOTION_DOT":"-0.00010040","GP_ID":"207212033","CENTER_NAME":"EARTH","DECAY_DATE":null,"REF_FRAME":"TEME","APOAPSIS":"351.786","COUNTRY_CODE":"US","TLE_LINE2":"2 52382  53.2155 125.9473 0003039  12.5221 295.5021 15.73206452  1305","LAUNCH_DATE":"2022-04-29","PERIAPSIS":"347.697","RA_OF_ASC_NODE":"125.9473","MEAN_MOTION_DDOT":"0.0000000000000","INCLINATION":"53.2155","TIME_SYSTEM":"UTC","TLE_LINE1":"1 52382U 22045BD  22182.58334491 -.00010040  00000-0 -67143-4 0  9997","MEAN_ELEMENT_THEORY":"SGP4","MEAN_MOTION":"15.73206452","FILE":"3506285","OBJECT_TYPE":"PAYLOAD","ELEMENT_SET_NO":"999","MEAN_ANOMALY":"295.5021","EPOCH":"2022-07-01T14:00:01.000224","OBJECT_ID":"2022-045BD","ECCENTRICITY":"0.00030390","SEMIMAJOR_AXIS":"6727.877"},{"ARG_OF_PERICENTER":"13.7482","BSTAR":"-0.00013535000000","REV_AT_EPOCH":"130","EPHEMERIS_TYPE":"0","NORAD_CAT_ID":"52383","PERIOD":"91.531","OBJECT_NAME":"STARLINK-3811","SITE":"AFETR","RCS_SIZE":"MEDIUM","CLASSIFICATION_TYPE":"U","MEAN_MOTION_DOT":"-0.00019616","GP_ID":"207212336","CENTER_NAME":"EARTH","DECAY_DATE":null,"REF_FRAME":"TEME","APOAPSIS":"351.949","TLE_LINE2":"2 52383  53.2152 125.9461 0003432  13.7482 295.4353 15.73242227  1306","COUNTRY_CODE":"US","LAUNCH_DATE":"2022-04-29","PERIAPSIS":"347.331","RA_OF_ASC_NODE":"125.9461","MEAN_MOTION_DDOT":"0.0000000000000","INCLINATION":"53.2152","TIME_SYSTEM":"UTC","TLE_LINE1":"1 52383U 22045BE  22182.58334491 -.00019616  00000-0 -13535-3 0  9991","MEAN_ELEMENT_THEORY":"SGP4","MEAN_MOTION":"15.73242227","FILE":"3506285","OBJECT_TYPE":"PAYLOAD","ELEMENT_SET_NO":"999","MEAN_ANOMALY":"295.4353","EPOCH":"2022-07-01T14:00:01.000224","OBJECT_ID":"2022-045BE","SEMIMAJOR_AXIS":"6727.775","ECCENTRICITY":"0.00034320"},{"PERIAPSIS":"523.422","LAUNCH_DATE":"2022-05-06","TLE_LINE2":"2 52451  53.2175 355.0742 0001310  73.5007 244.9420 15.13898596  8957","COUNTRY_CODE":"US","INCLINATION":"53.2175","MEAN_MOTION_DDOT":"0.0000000000000","RA_OF_ASC_NODE":"355.0742","MEAN_MOTION_DOT":"-0.00718291","APOAPSIS":"525.231","REF_FRAME":"TEME","DECAY_DATE":null,"CENTER_NAME":"EARTH","GP_ID":"207214897","PERIOD":"95.119","NORAD_CAT_ID":"52451","EPHEMERIS_TYPE":"0","BSTAR":"-0.04210400000000","REV_AT_EPOCH":"895","CLASSIFICATION_TYPE":"U","SITE":"AFETR","OBJECT_NAME":"STARLINK-3870","RCS_SIZE":"LARGE","ARG_OF_PERICENTER":"73.5007","MEAN_ANOMALY":"244.9420","ELEMENT_SET_NO":"999","SEMIMAJOR_AXIS":"6902.461","ECCENTRICITY":"0.00013100","OBJECT_ID":"2022-049A","EPOCH":"2022-07-01T22:00:00.999936","OBJECT_TYPE":"PAYLOAD","MEAN_MOTION":"15.13898596","FILE":"3506387","TLE_LINE1":"1 52451U 22049A   22182.91667824 -.00718291  00000-0 -42104-1 0  9994","TIME_SYSTEM":"UTC","MEAN_ELEMENT_THEORY":"SGP4"},{"EPOCH":"2022-07-01T14:00:01.000224","OBJECT_ID":"2022-049B","SEMIMAJOR_AXIS":"6904.820","ECCENTRICITY":"0.00020330","ELEMENT_SET_NO":"999","MEAN_ANOMALY":"152.5145","OBJECT_TYPE":"PAYLOAD","FILE":"3506285","MEAN_MOTION":"15.13123036","MEAN_ELEMENT_THEORY":"SGP4","TIME_SYSTEM":"UTC","TLE_LINE1":"1 52452U 22049B   22182.58334491 -.00720829  00000-0 -43194-1 0  9999","RA_OF_ASC_NODE":"356.5664","MEAN_MOTION_DDOT":"0.0000000000000","INCLINATION":"53.2175","COUNTRY_CODE":"US","TLE_LINE2":"2 52452  53.2175 356.5664 0002033  37.6767 152.5145 15.13123036  1304","LAUNCH_DATE":"2022-05-06","PERIAPSIS":"525.281","GP_ID":"207212243","CENTER_NAME":"EARTH","DECAY_DATE":null,"REF_FRAME":"TEME","APOAPSIS":"528.089","MEAN_MOTION_DOT":"-0.00720829","SITE":"AFETR","OBJECT_NAME":"STARLINK-3909","RCS_SIZE":"LARGE","CLASSIFICATION_TYPE":"U","BSTAR":"-0.04319400000000","REV_AT_EPOCH":"130","EPHEMERIS_TYPE":"0","PERIOD":"95.167","NORAD_CAT_ID":"52452","ARG_OF_PERICENTER":"37.6767"}];
